{
  "_comments": [
    "These are sample documents showing what each MongoDB collection looks like.",
    "We picked a few real asteroids from NASA's API to use as examples.",
    "The structure mirrors what NASA's NeoWs API actually returns so we",
    "don't have to do a bunch of transformation before storing it."
  ],

  "neo_cache": [
    {
      "_comment": "Example 1: 433 Eros - a well-known near-Earth asteroid, not hazardous",
      "_id": "2000433",
      "neo_reference_id": "2000433",
      "name": "433 Eros",
      "name_limited": "Eros",
      "nasa_jpl_url": "https://ssd.jpl.nasa.gov/sbdb.cgi?ssd=2000433",
      "absolute_magnitude_h": 11.16,
      "is_potentially_hazardous_asteroid": false,
      "estimated_diameter": {
        "kilometers": {
          "estimated_diameter_min": 21.2064956518,
          "estimated_diameter_max": 47.4390368158
        },
        "meters": {
          "estimated_diameter_min": 21206.4956517612,
          "estimated_diameter_max": 47439.0368158034
        },
        "miles": {
          "estimated_diameter_min": 13.1784862604,
          "estimated_diameter_max": 29.4733310308
        },
        "feet": {
          "estimated_diameter_min": 69573.8052898651,
          "estimated_diameter_max": 155638.5715398
        }
      },
      "close_approach_data": [
        {
          "close_approach_date": "2026-01-21",
          "close_approach_date_full": "2026-Jan-21 14:23",
          "epoch_date_close_approach": 1769081380000,
          "relative_velocity": {
            "kilometers_per_second": "1.6932847126",
            "kilometers_per_hour": "6095.8249654",
            "miles_per_hour": "3787.5065548"
          },
          "miss_distance": {
            "astronomical": "0.3006193736",
            "lunar": "116.9409363304",
            "kilometers": "44967974.836059832",
            "miles": "27940001.6765497816"
          },
          "orbiting_body": "Earth"
        }
      ],
      "orbital_data": {
        "orbit_id": "659",
        "orbit_determination_date": "2021-05-24 17:55:05",
        "first_observation_date": "1893-10-29",
        "last_observation_date": "2021-05-14",
        "orbit_uncertainty": "0",
        "minimum_orbit_intersection": ".148869",
        "jupiter_tisserand_invariant": "4.582",
        "epoch_osculation": "2460600.5",
        "eccentricity": ".2228858920046801",
        "semi_major_axis": "1.457921119741424",
        "inclination": "10.82844860845587",
        "ascending_node_longitude": "304.3221201736591",
        "orbital_period": "643.26",
        "perihelion_distance": "1.133248483375706",
        "perihelion_argument": "178.9229645874224",
        "aphelion_distance": "1.782593756107142",
        "perihelion_time": "2460475.784478688",
        "mean_anomaly": "69.36060512804",
        "mean_motion": ".5597010617",
        "equinox": "J2000",
        "orbit_class": {
          "orbit_class_type": "AMO",
          "orbit_class_description": "Near-Earth asteroid orbits similar to that of 1221 Amor",
          "orbit_class_range": "1.017 AU < q (perihelion) < 1.3 AU"
        }
      },
      "cached_at": "2026-03-18T00:00:00Z"
    },

    {
      "_comment": "Example 2: 99942 Apophis - this one IS potentially hazardous, good for testing the hazardous filter",
      "_id": "2099942",
      "neo_reference_id": "2099942",
      "name": "99942 Apophis (2004 MN4)",
      "name_limited": "Apophis",
      "nasa_jpl_url": "https://ssd.jpl.nasa.gov/sbdb.cgi?ssd=2099942",
      "absolute_magnitude_h": 19.7,
      "is_potentially_hazardous_asteroid": true,
      "estimated_diameter": {
        "kilometers": {
          "estimated_diameter_min": 0.2678461849,
          "estimated_diameter_max": 0.5991848556
        },
        "meters": {
          "estimated_diameter_min": 267.8461849339,
          "estimated_diameter_max": 599.1848556224
        },
        "miles": {
          "estimated_diameter_min": 0.1664218597,
          "estimated_diameter_max": 0.3723282731
        },
        "feet": {
          "estimated_diameter_min": 878.7603059511,
          "estimated_diameter_max": 1965.8294822613
        }
      },
      "close_approach_data": [
        {
          "close_approach_date": "2029-04-13",
          "close_approach_date_full": "2029-Apr-13 21:46",
          "epoch_date_close_approach": 1871084760000,
          "relative_velocity": {
            "kilometers_per_second": "7.4256353614",
            "kilometers_per_hour": "26732.2872810",
            "miles_per_hour": "16611.0316398"
          },
          "miss_distance": {
            "astronomical": "0.000254491",
            "lunar": "0.098997139",
            "kilometers": "38073.0774",
            "miles": "23662.3264"
          },
          "orbiting_body": "Earth"
        }
      ],
      "orbital_data": {
        "orbit_id": "234",
        "orbit_determination_date": "2023-08-04 09:27:51",
        "first_observation_date": "2004-06-19",
        "last_observation_date": "2023-07-26",
        "orbit_uncertainty": "0",
        "minimum_orbit_intersection": ".000053",
        "eccentricity": ".1913767936624591",
        "semi_major_axis": ".9223282440938983",
        "inclination": "3.33897826080687",
        "orbital_period": "323.7",
        "orbit_class": {
          "orbit_class_type": "ATE",
          "orbit_class_description": "Near-Earth asteroid orbits similar to that of 2062 Aten",
          "orbit_class_range": "a (semi-major axis) < 1.0 AU; q (perihelion) > 0.983 AU"
        }
      },
      "cached_at": "2026-03-18T00:00:00Z"
    }
  ],

  "search_logs": [
    {
      "_comment": "User searched by asteroid name and got a result",
      "_id": "ObjectId (auto-generated by MongoDB)",
      "user_id": 1,
      "query": "Apophis",
      "neo_id": "2099942",
      "timestamp": "2026-03-18T14:32:00Z",
      "result_count": 1,
      "search_type": "name"
    },
    {
      "_comment": "User searched by JPL ID",
      "_id": "ObjectId (auto-generated by MongoDB)",
      "user_id": 1,
      "query": "2000433",
      "neo_id": "2000433",
      "timestamp": "2026-03-18T14:35:22Z",
      "result_count": 1,
      "search_type": "jpl_id"
    },
    {
      "_comment": "Search that returned no results - neo_id is null here",
      "_id": "ObjectId (auto-generated by MongoDB)",
      "user_id": 2,
      "query": "notarealasteroid",
      "neo_id": null,
      "timestamp": "2026-03-18T15:01:09Z",
      "result_count": 0,
      "search_type": "name"
    }
  ],

  "sessions": [
    {
      "_comment": "Active session for a logged-in user",
      "_id": "ObjectId (auto-generated by MongoDB)",
      "session_token": "eyJhbGciOiJIUzI1NiIsInR5cCI6IkpXVCJ9.example",
      "user_id": 1,
      "created_at": "2026-03-18T14:00:00Z",
      "expires_at": "2026-03-18T22:00:00Z",
      "user_agent": "Mozilla/5.0 (Windows NT 10.0; Win64; x64)",
      "ip_address": "192.168.1.1"
    }
  ]
}
